STARLINK-35454          
1 66236U 25245C   25322.83335647 -.01989575  00000+0 -29473-1 0  9995
2 66236  53.1598  82.6460 0001159  73.5488 154.1343 15.58200745  4106
STARLINK-35557          
1 66237U 25245D   25322.83335647 -.01990376  00000+0 -29485-1 0  9990
2 66237  53.1598  82.6419 0001127  70.7155 158.8827 15.58202023  4262
STARLINK-35556          
1 66238U 25245E   25322.83335647 -.01991044  00000+0 -29496-1 0  9996
2 66238  53.1598  82.6375 0001168  78.7765 152.7403 15.58201753  4266
STARLINK-35554          
1 66239U 25245F   25322.83335647 -.01987720  00000+0 -29442-1 0  9994
2 66239  53.1596  82.6340 0001091  69.6875 163.7446 15.58200895  4101
STARLINK-35546          
1 66240U 25245G   25322.83335647 -.01987100  00000+0 -29432-1 0  9997
2 66240  53.1597  82.6303 0001074  70.5161 164.8330 15.58200475  4268
STARLINK-35497          
1 66241U 25245H   25322.83335647 -.01988830  00000+0 -29462-1 0  9992
2 66241  53.1598  82.6266 0001113  78.7633 158.5051 15.58199929  4212
STARLINK-35480          
1 66242U 25245J   25322.83335647 -.01991093  00000+0 -29498-1 0  9997
2 66242  53.1596  82.6146 0001047  77.8752 165.1424 15.58202030  4267
STARLINK-35495          
1 66243U 25245K   25322.83335647 -.01988742  00000+0 -29459-1 0  9992
2 66243  53.1597  82.6229 0001065  70.6380 168.5445 15.58201313  4262
STARLINK-35517          
1 66244U 25245L   25322.16670139 -.01972367  00000+0 -26084-1 0  9994
2 66244  53.1604  85.8534 0000921  84.1186  11.7318 15.61115794  3943
STARLINK-35503          
1 66245U 25245M   25322.83335647 -.01990801  00000+0 -29494-1 0  9992
2 66245  53.1597  82.6088 0001054  73.3214 171.6126 15.58201765  4218
STARLINK-35434          
1 66246U 25245N   25322.83335647 -.01987033  00000+0 -29432-1 0  9998
2 66246  53.1596  82.6044 0001044  69.7050 177.1459 15.58199899  4052
STARLINK-35481          
1 66247U 25245P   25322.83335647 -.01986504  00000+0 -29423-1 0  9991
2 66247  53.1596  82.6010 0001075  70.1688 178.5990 15.58199857  4265
