CCSDS_OMM_VERS = 2.0
CREATION_DATE  = 
ORIGINATOR     = 

OBJECT_NAME    = STARLINK-35454
OBJECT_ID      = 2025-245C
CENTER_NAME    = EARTH
REF_FRAME      = TEME
TIME_SYSTEM    = UTC
MEAN_ELEMENT_THEORY = SGP/SGP4

EPOCH          = 2025-11-18T20:00:01.999008
MEAN_MOTION    = 15.58200745
ECCENTRICITY   = .0001159
INCLINATION    = 53.1598
RA_OF_ASC_NODE = 82.6460
ARG_OF_PERICENTER = 73.5488
MEAN_ANOMALY   = 154.1343

EPHEMERIS_TYPE = 0
CLASSIFICATION_TYPE = U
NORAD_CAT_ID   = 66236
ELEMENT_SET_NO = 999
REV_AT_EPOCH   = 410
BSTAR          = -.29473E-1
MEAN_MOTION_DOT = -.1989575E-1
MEAN_MOTION_DDOT = 0

CCSDS_OMM_VERS = 2.0
CREATION_DATE  = 
ORIGINATOR     = 

OBJECT_NAME    = STARLINK-35557
OBJECT_ID      = 2025-245D
CENTER_NAME    = EARTH
REF_FRAME      = TEME
TIME_SYSTEM    = UTC
MEAN_ELEMENT_THEORY = SGP/SGP4

EPOCH          = 2025-11-18T20:00:01.999008
MEAN_MOTION    = 15.58202023
ECCENTRICITY   = .0001127
INCLINATION    = 53.1598
RA_OF_ASC_NODE = 82.6419
ARG_OF_PERICENTER = 70.7155
MEAN_ANOMALY   = 158.8827

EPHEMERIS_TYPE = 0
CLASSIFICATION_TYPE = U
NORAD_CAT_ID   = 66237
ELEMENT_SET_NO = 999
REV_AT_EPOCH   = 426
BSTAR          = -.29485E-1
MEAN_MOTION_DOT = -.1990376E-1
MEAN_MOTION_DDOT = 0

CCSDS_OMM_VERS = 2.0
CREATION_DATE  = 
ORIGINATOR     = 

OBJECT_NAME    = STARLINK-35556
OBJECT_ID      = 2025-245E
CENTER_NAME    = EARTH
REF_FRAME      = TEME
TIME_SYSTEM    = UTC
MEAN_ELEMENT_THEORY = SGP/SGP4

EPOCH          = 2025-11-18T20:00:01.999008
MEAN_MOTION    = 15.58201753
ECCENTRICITY   = .0001168
INCLINATION    = 53.1598
RA_OF_ASC_NODE = 82.6375
ARG_OF_PERICENTER = 78.7765
MEAN_ANOMALY   = 152.7403

EPHEMERIS_TYPE = 0
CLASSIFICATION_TYPE = U
NORAD_CAT_ID   = 66238
ELEMENT_SET_NO = 999
REV_AT_EPOCH   = 426
BSTAR          = -.29496E-1
MEAN_MOTION_DOT = -.1991044E-1
MEAN_MOTION_DDOT = 0

CCSDS_OMM_VERS = 2.0
CREATION_DATE  = 
ORIGINATOR     = 

OBJECT_NAME    = STARLINK-35554
OBJECT_ID      = 2025-245F
CENTER_NAME    = EARTH
REF_FRAME      = TEME
TIME_SYSTEM    = UTC
MEAN_ELEMENT_THEORY = SGP/SGP4

EPOCH          = 2025-11-18T20:00:01.999008
MEAN_MOTION    = 15.58200895
ECCENTRICITY   = .0001091
INCLINATION    = 53.1596
RA_OF_ASC_NODE = 82.6340
ARG_OF_PERICENTER = 69.6875
MEAN_ANOMALY   = 163.7446

EPHEMERIS_TYPE = 0
CLASSIFICATION_TYPE = U
NORAD_CAT_ID   = 66239
ELEMENT_SET_NO = 999
REV_AT_EPOCH   = 410
BSTAR          = -.29442E-1
MEAN_MOTION_DOT = -.198772E-1
MEAN_MOTION_DDOT = 0

CCSDS_OMM_VERS = 2.0
CREATION_DATE  = 
ORIGINATOR     = 

OBJECT_NAME    = STARLINK-35546
OBJECT_ID      = 2025-245G
CENTER_NAME    = EARTH
REF_FRAME      = TEME
TIME_SYSTEM    = UTC
MEAN_ELEMENT_THEORY = SGP/SGP4

EPOCH          = 2025-11-18T20:00:01.999008
MEAN_MOTION    = 15.58200475
ECCENTRICITY   = .0001074
INCLINATION    = 53.1597
RA_OF_ASC_NODE = 82.6303
ARG_OF_PERICENTER = 70.5161
MEAN_ANOMALY   = 164.8330

EPHEMERIS_TYPE = 0
CLASSIFICATION_TYPE = U
NORAD_CAT_ID   = 66240
ELEMENT_SET_NO = 999
REV_AT_EPOCH   = 426
BSTAR          = -.29432E-1
MEAN_MOTION_DOT = -.19871E-1
MEAN_MOTION_DDOT = 0

CCSDS_OMM_VERS = 2.0
CREATION_DATE  = 
ORIGINATOR     = 

OBJECT_NAME    = STARLINK-35497
OBJECT_ID      = 2025-245H
CENTER_NAME    = EARTH
REF_FRAME      = TEME
TIME_SYSTEM    = UTC
MEAN_ELEMENT_THEORY = SGP/SGP4

EPOCH          = 2025-11-18T20:00:01.999008
MEAN_MOTION    = 15.58199929
ECCENTRICITY   = .0001113
INCLINATION    = 53.1598
RA_OF_ASC_NODE = 82.6266
ARG_OF_PERICENTER = 78.7633
MEAN_ANOMALY   = 158.5051

EPHEMERIS_TYPE = 0
CLASSIFICATION_TYPE = U
NORAD_CAT_ID   = 66241
ELEMENT_SET_NO = 999
REV_AT_EPOCH   = 421
BSTAR          = -.29462E-1
MEAN_MOTION_DOT = -.198883E-1
MEAN_MOTION_DDOT = 0

CCSDS_OMM_VERS = 2.0
CREATION_DATE  = 
ORIGINATOR     = 

OBJECT_NAME    = STARLINK-35480
OBJECT_ID      = 2025-245J
CENTER_NAME    = EARTH
REF_FRAME      = TEME
TIME_SYSTEM    = UTC
MEAN_ELEMENT_THEORY = SGP/SGP4

EPOCH          = 2025-11-18T20:00:01.999008
MEAN_MOTION    = 15.58202030
ECCENTRICITY   = .0001047
INCLINATION    = 53.1596
RA_OF_ASC_NODE = 82.6146
ARG_OF_PERICENTER = 77.8752
MEAN_ANOMALY   = 165.1424

EPHEMERIS_TYPE = 0
CLASSIFICATION_TYPE = U
NORAD_CAT_ID   = 66242
ELEMENT_SET_NO = 999
REV_AT_EPOCH   = 426
BSTAR          = -.29498E-1
MEAN_MOTION_DOT = -.1991093E-1
MEAN_MOTION_DDOT = 0

CCSDS_OMM_VERS = 2.0
CREATION_DATE  = 
ORIGINATOR     = 

OBJECT_NAME    = STARLINK-35495
OBJECT_ID      = 2025-245K
CENTER_NAME    = EARTH
REF_FRAME      = TEME
TIME_SYSTEM    = UTC
MEAN_ELEMENT_THEORY = SGP/SGP4

EPOCH          = 2025-11-18T20:00:01.999008
MEAN_MOTION    = 15.58201313
ECCENTRICITY   = .0001065
INCLINATION    = 53.1597
RA_OF_ASC_NODE = 82.6229
ARG_OF_PERICENTER = 70.6380
MEAN_ANOMALY   = 168.5445

EPHEMERIS_TYPE = 0
CLASSIFICATION_TYPE = U
NORAD_CAT_ID   = 66243
ELEMENT_SET_NO = 999
REV_AT_EPOCH   = 426
BSTAR          = -.29459E-1
MEAN_MOTION_DOT = -.1988742E-1
MEAN_MOTION_DDOT = 0

CCSDS_OMM_VERS = 2.0
CREATION_DATE  = 
ORIGINATOR     = 

OBJECT_NAME    = STARLINK-35517
OBJECT_ID      = 2025-245L
CENTER_NAME    = EARTH
REF_FRAME      = TEME
TIME_SYSTEM    = UTC
MEAN_ELEMENT_THEORY = SGP/SGP4

EPOCH          = 2025-11-18T04:00:03.000096
MEAN_MOTION    = 15.61115794
ECCENTRICITY   = .00009218
INCLINATION    = 53.1604
RA_OF_ASC_NODE = 85.8534
ARG_OF_PERICENTER = 84.1186
MEAN_ANOMALY   = 11.7318

EPHEMERIS_TYPE = 0
CLASSIFICATION_TYPE = U
NORAD_CAT_ID   = 66244
ELEMENT_SET_NO = 999
REV_AT_EPOCH   = 394
BSTAR          = -.26084105E-1
MEAN_MOTION_DOT = -.1972367E-1
MEAN_MOTION_DDOT = 0

CCSDS_OMM_VERS = 2.0
CREATION_DATE  = 
ORIGINATOR     = 

OBJECT_NAME    = STARLINK-35503
OBJECT_ID      = 2025-245M
CENTER_NAME    = EARTH
REF_FRAME      = TEME
TIME_SYSTEM    = UTC
MEAN_ELEMENT_THEORY = SGP/SGP4

EPOCH          = 2025-11-18T20:00:01.999008
MEAN_MOTION    = 15.58201765
ECCENTRICITY   = .0001054
INCLINATION    = 53.1597
RA_OF_ASC_NODE = 82.6088
ARG_OF_PERICENTER = 73.3214
MEAN_ANOMALY   = 171.6126

EPHEMERIS_TYPE = 0
CLASSIFICATION_TYPE = U
NORAD_CAT_ID   = 66245
ELEMENT_SET_NO = 999
REV_AT_EPOCH   = 421
BSTAR          = -.29494E-1
MEAN_MOTION_DOT = -.1990801E-1
MEAN_MOTION_DDOT = 0

CCSDS_OMM_VERS = 2.0
CREATION_DATE  = 
ORIGINATOR     = 

OBJECT_NAME    = STARLINK-35434
OBJECT_ID      = 2025-245N
CENTER_NAME    = EARTH
REF_FRAME      = TEME
TIME_SYSTEM    = UTC
MEAN_ELEMENT_THEORY = SGP/SGP4

EPOCH          = 2025-11-18T20:00:01.999008
MEAN_MOTION    = 15.58199899
ECCENTRICITY   = .0001044
INCLINATION    = 53.1596
RA_OF_ASC_NODE = 82.6044
ARG_OF_PERICENTER = 69.7050
MEAN_ANOMALY   = 177.1459

EPHEMERIS_TYPE = 0
CLASSIFICATION_TYPE = U
NORAD_CAT_ID   = 66246
ELEMENT_SET_NO = 999
REV_AT_EPOCH   = 405
BSTAR          = -.29432E-1
MEAN_MOTION_DOT = -.1987033E-1
MEAN_MOTION_DDOT = 0

CCSDS_OMM_VERS = 2.0
CREATION_DATE  = 
ORIGINATOR     = 

OBJECT_NAME    = STARLINK-35481
OBJECT_ID      = 2025-245P
CENTER_NAME    = EARTH
REF_FRAME      = TEME
TIME_SYSTEM    = UTC
MEAN_ELEMENT_THEORY = SGP/SGP4

EPOCH          = 2025-11-18T20:00:01.999008
MEAN_MOTION    = 15.58199857
ECCENTRICITY   = .0001075
INCLINATION    = 53.1596
RA_OF_ASC_NODE = 82.6010
ARG_OF_PERICENTER = 70.1688
MEAN_ANOMALY   = 178.5990

EPHEMERIS_TYPE = 0
CLASSIFICATION_TYPE = U
NORAD_CAT_ID   = 66247
ELEMENT_SET_NO = 999
REV_AT_EPOCH   = 426
BSTAR          = -.29423E-1
MEAN_MOTION_DOT = -.1986504E-1
MEAN_MOTION_DDOT = 0

